{"type": "FeatureCollection", "features": [ {"type": "Feature", "properties": {"norad_id": 66910, "name": "1998-067XW", "group": "stations", "lat": 40.4938887699206, "lon": -158.08424210628638, "alt_km": 410.6954836314044, "timestamp": "2025-12-09T07:41:31.989861+00:00", "meta": {"OBJECT_NAME": "1998-067XW", "OBJECT_ID": "1998-067XW", "EPOCH": "2025-12-08T22:10:28.282944", "MEAN_MOTION": 15.51110893, "ECCENTRICITY": 0.00059267, "INCLINATION": 51.6296, "RA_OF_ASC_NODE": 161.31, "ARG_OF_PERICENTER": 189.6161, "MEAN_ANOMALY": 170.4716, "EPHEMERIS_TYPE": 0, "CLASSIFICATION_TYPE": "U", "NORAD_CAT_ID": 66910, "ELEMENT_SET_NO": 999, "REV_AT_EPOCH": 102, "BSTAR": 0.0011400627, "MEAN_MOTION_DOT": 0.00067841, "MEAN_MOTION_DDOT": 0}, "tle": {"line1": "1 66910U 98067XW  25342.92393846  .00067841  00000+0  11401-2 0  9996", "line2": "2 66910  51.6296 161.3100 0005926 189.6161 170.4716 15.51110893  1022"}}, "geometry": {"type": "Point", "coordinates": [-158.08424210628638, 40.4938887699206]}}, {"type": "Feature", "properties": {"norad_id": 66911, "name": "1998-067XX", "group": "stations", "lat": 41.387680890387294, "lon": -156.37798038922458, "alt_km": 410.0082520686583, "timestamp": "2025-12-09T07:41:31.989878+00:00", "meta": {"OBJECT_NAME": "1998-067XX", "OBJECT_ID": "1998-067XX", "EPOCH": "2025-12-08T19:04:34.996800", "MEAN_MOTION": 15.51222448, "ECCENTRICITY": 0.00057546, "INCLINATION": 51.6294, "RA_OF_ASC_NODE": 161.9483, "ARG_OF_PERICENTER": 189.9159, "MEAN_ANOMALY": 170.1718, "EPHEMERIS_TYPE": 0, "CLASSIFICATION_TYPE": "U", "NORAD_CAT_ID": 66911, "ELEMENT_SET_NO": 999, "REV_AT_EPOCH": 99, "BSTAR": 0.0014184856, "MEAN_MOTION_DOT": 0.00085043, "MEAN_MOTION_DDOT": 0}, "tle": {"line1": "1 66911U 98067XX  25342.79484950  .00085043  00000+0  14185-2 0  9995", "line2": "2 66911  51.6294 161.9483 0005754 189.9159 170.1718 15.51222448   994"}}, "geometry": {"type": "Point", "coordinates": [-156.37798038922458, 41.387680890387294]}}, {"type": "Feature", "properties": {"norad_id": 66912, "name": "1998-067XY", "group": "stations", "lat": 33.89200201978731, "lon": -168.48039928178517, "alt_km": 413.58342557176184, "timestamp": "2025-12-09T07:41:31.989899+00:00", "meta": {"OBJECT_NAME": "1998-067XY", "OBJECT_ID": "1998-067XY", "EPOCH": "2025-12-08T19:07:24.190464", "MEAN_MOTION": 15.50590013, "ECCENTRICITY": 0.00050406, "INCLINATION": 51.6301, "RA_OF_ASC_NODE": 161.961, "ARG_OF_PERICENTER": 202.8515, "MEAN_ANOMALY": 157.2251, "EPHEMERIS_TYPE": 0, "CLASSIFICATION_TYPE": "U", "NORAD_CAT_ID": 66912, "ELEMENT_SET_NO": 999, "REV_AT_EPOCH": 99, "BSTAR": 0.0010396633, "MEAN_MOTION_DOT": 0.00060617, "MEAN_MOTION_DDOT": 0}, "tle": {"line1": "1 66912U 98067XY  25342.79680776  .00060617  00000+0  10397-2 0  9991", "line2": "2 66912  51.6301 161.9610 0005040 202.8515 157.2251 15.50590013   998"}}, "geometry": {"type": "Point", "coordinates": [-168.48039928178517, 33.89200201978731]}}]}